[{"OBJECT_NAME":"TEVEL2-6","OBJECT_ID":"2025-052F","EPOCH":"2026-03-09T15:35:24.554400","MEAN_MOTION":15.30760889,"ECCENTRICITY":0.0004769,"INCLINATION":97.4016,"RA_OF_ASC_NODE":325.0381,"ARG_OF_PERICENTER":95.6604,"MEAN_ANOMALY":264.5181,"EPHEMERIS_TYPE":0,"CLASSIFICATION_TYPE":"U","NORAD_CAT_ID":63215,"ELEMENT_SET_NO":999,"REV_AT_EPOCH":5486,"BSTAR":0.00070909,"MEAN_MOTION_DOT":0.00021046,"MEAN_MOTION_DDOT":0},{"OBJECT_NAME":"STARLINK-34123","OBJECT_ID":"2025-095B","EPOCH":"2026-03-09T14:57:59.247360","MEAN_MOTION":15.27615729,"ECCENTRICITY":0.0002676,"INCLINATION":43.0055,"RA_OF_ASC_NODE":176.9552,"ARG_OF_PERICENTER":309.0664,"MEAN_ANOMALY":50.9949,"EPHEMERIS_TYPE":0,"CLASSIFICATION_TYPE":"U","NORAD_CAT_ID":63891,"ELEMENT_SET_NO":999,"REV_AT_EPOCH":4777,"BSTAR":0.0011051,"MEAN_MOTION_DOT":0.00030308,"MEAN_MOTION_DDOT":0}]
